<?xml version="1.0" encoding="UTF-8"?>
<kml xmlns="http://www.opengis.net/kml/2.2" xmlns:gx="http://www.google.com/kml/ext/2.2" xmlns:kml="http://www.opengis.net/kml/2.2" xmlns:atom="http://www.w3.org/2005/Atom">
<Document>
	<name>Vehicle_Path.kml</name>
	<StyleMap id="m_ylw-pushpin">
		<Pair>
			<key>normal</key>
			<styleUrl>#s_ylw-pushpin</styleUrl>
		</Pair>
		<Pair>
			<key>highlight</key>
			<styleUrl>#s_ylw-pushpin_hl</styleUrl>
		</Pair>
	</StyleMap>
	<Style id="s_ylw-pushpin">
		<IconStyle>
			<scale>1.1</scale>
			<Icon>
				<href>http://maps.google.com/mapfiles/kml/pushpin/ylw-pushpin.png</href>
			</Icon>
			<hotSpot x="20" y="2" xunits="pixels" yunits="pixels"/>
		</IconStyle>
	</Style>
	<Style id="s_ylw-pushpin_hl">
		<IconStyle>
			<scale>1.3</scale>
			<Icon>
				<href>http://maps.google.com/mapfiles/kml/pushpin/ylw-pushpin.png</href>
			</Icon>
			<hotSpot x="20" y="2" xunits="pixels" yunits="pixels"/>
		</IconStyle>
	</Style>
	<Placemark>
		<name>Vehicle Path</name>
		<styleUrl>#m_ylw-pushpin</styleUrl>
		<LineString>
			<tessellate>1</tessellate>
			<coordinates>
				-117.8218997731416,34.05930353099613,0 -117.8218817127107,34.05930967397404,0 -117.8218666811543,34.0593149368874,0 -117.821850574408,34.0593209338552,0 -117.821835164673,34.05932676979396,0 -117.8218184566204,34.05933266000518,0 -117.8218014912546,34.05933947245382,0 -117.8217842006303,34.05934604441911,0 -117.8217654156406,34.05935229244655,0 -117.8217461290562,34.05935957995663,0 -117.8217262172199,34.05936713008273,0 -117.8217064630988,34.05937423659868,0 -117.821686091824,34.05938157728429,0 -117.8216657969808,34.05938846706967,0 -117.8216382698489,34.05939816758822,0 -117.8216133674055,34.05940607161216,0 -117.821588103202,34.05941460832094,0 -117.8215654389311,34.05942233968739,0 -117.8215474145981,34.0594291601408,0 -117.8215237768902,34.05943572591948,0 -117.8214989617651,34.05944522922398,0 -117.8214709884214,34.05945506303333,0 -117.8214436950745,34.05946400163649,0 -117.8214143587765,34.05947226877983,0 -117.8214024266808,34.05947351582708,0 -117.8213907226935,34.05947433174303,0 -117.8213792766652,34.05947321307734,0 -117.8213680760451,34.05946962105692,0 -117.8213586668411,34.05946461429397,0 -117.8213500622898,34.05945810567957,0 -117.8213434824109,34.0594491802219,0 -117.8213369593667,34.05944008605178,0 -117.8213265073381,34.05942659261035,0 -117.82131638289,34.05941044397736,0 -117.8213090108611,34.05939726102248,0 -117.8212987289228,34.0593833551144,0 -117.8212967251725,34.05937709377234,0 -117.8212989319581,34.05937295094321,0 -117.8213046996096,34.05936802059583,0 -117.8213151947624,34.05936354847098,0 -117.8213271231891,34.05935812410239,0 -117.8213407602479,34.05935236055492,0 -117.821359887982,34.05934437842498,0 -117.8213742020942,34.05933756686048,0 -117.8213918383977,34.05933062304779,0 -117.8214090080085,34.05932319478369,0 -117.8214270601564,34.05931545004222,0 -117.8214452416856,34.05930755745011,0 -117.8214579191565,34.05930188187072,0 -117.8214733628258,34.05929458097726,0 -117.8214920956688,34.05928672256863,0 -117.8215106164811,34.05927946546412,0 -117.8215249907695,34.05927213877584,0 -117.8215391164539,34.05926615838047,0 -117.8215473382425,34.05926087869492,0 -117.8215523316059,34.05925492127949,0 -117.8215560347293,34.05924858576122,0 -117.8215587302597,34.05924179645102,0 -117.8215590642898,34.05923410533384,0 -117.8215579118984,34.05922600677816,0 -117.8215548160373,34.05921862473426,0 -117.8215498275556,34.05921224788315,0 -117.8215427079296,34.05920649672963,0 -117.8215329492905,34.05920286784297,0 -117.82152184553,34.05920226947908,0 -117.8215088519448,34.0592037729262,0 -117.8214995589001,34.05920664618942,0 -117.821491146035,34.05921174154653,0 -117.8214839622439,34.05921751814571,0 -117.8214781845533,34.05922434926197,0 -117.8214742840049,34.05923136282106,0 -117.821473588183,34.05923828749723,0 -117.8214748815039,34.05924527952702,0 -117.8214780336826,34.0592519135833,0 -117.8214823222566,34.05925788712045,0 -117.8214894492125,34.05926481082248,0 -117.8214966697038,34.05927001317794,0 -117.8215042053341,34.05927425394169,0 -117.8215093107258,34.05927701404146,0 -117.8215162106355,34.05928400999644,0 -117.8215222561775,34.05929108870782,0 -117.8215279256031,34.05929820427944,0 -117.8215327333869,34.0593051078905,0 -117.8215377594746,34.05931071814301,0 -117.8215440769057,34.05931471523898,0 -117.8215507920725,34.05931579620012,0 -117.8215596454207,34.05931503866705,0 -117.8215673263947,34.05931270500373,0 -117.8215753465297,34.05931026830145,0 -117.8215818122221,34.05931052868478,0 -117.8215866475081,34.05931311832583,0 -117.8215898302485,34.05931874987822,0 -117.8215925303411,34.05932529031849,0 -117.8215951847641,34.05933369377001,0 -117.8215995064072,34.05934407570417,0 -117.8216059448462,34.0593542502081,0 -117.8216103389703,34.05936004697872,0 -117.821616383942,34.05936447116916,0 -117.821622801116,34.05936717483886,0 -117.8216303596051,34.05936871422421,0 -117.8216392675492,34.05936902455758,0 -117.8216478529617,34.05936824177802,0 -117.8216573246913,34.05936762711926,0 -117.8216702705139,34.05936549312901,0 -117.8216895298724,34.05936092624125,0 -117.8217086570594,34.05935648310237,0 -117.8217257466208,34.05935246837003,0 -117.8217392342908,34.05934876129627,0 -117.8217533915355,34.05934526286848,0 -117.8217674774369,34.05934075772468,0 -117.8217836901445,34.05933404797083,0 -117.8218111199524,34.05932691896726,0 -117.8218268358136,34.05931973783049,0 -117.8218461885337,34.0593124456053,0 -117.8218646071745,34.05930451062736,0 -117.8218904152249,34.05929506458739,0 
			</coordinates>
		</LineString>
		<atom:link rel="app" href="https://www.google.com/earth/about/versions/#earth-pro" title="Google Earth Pro 7.3.6.10441"></atom:link>
	</Placemark>
</Document>
</kml>
